NORAD_CAT_ID,OBJECT_NAME,OBJECT_TYPE,EPOCH,MEAN_MOTION,ECCENTRICITY,INCLINATION,RA_OF_ASC_NODE,ARG_OF_PERICENTER,MEAN_ANOMALY,BSTAR,MEAN_MOTION_DOT,MEAN_MOTION_DDOT,TLE_LINE0,TLE_LINE1,TLE_LINE2,SEMIMAJOR_AXIS,PERIOD,APOGEE,PERIGEE,DECAYED
56776.0,STARLINK-6274,PAYLOAD,2024-01-24 13:41:37,14.98327906,0.0003273,69.9995,118.9918,269.8816,90.1968,-0.00016515,-2.063e-05,0.0,0 STARLINK-6274,1 56776U 23078K   24024.57057276 -.00002063  00000-0 -16515-3 0  9996,2 56776  69.9995 118.9918 0003273 269.8816  90.1968 14.98327906 37060,6950.199,96.107,574.339,569.79,0.0
56776.0,STARLINK-6274,PAYLOAD,2024-01-24 15:17:45,14.98328143,0.0003261,69.9997,118.8239,268.1716,91.907,-0.00014213,-1.788e-05,0.0,0 STARLINK-6274,1 56776U 23078K   24024.63733167 -.00001788  00000-0 -14213-3 0  9999,2 56776  69.9997 118.8239 0003261 268.1716  91.9070 14.98328143 37332,6950.199,96.107,574.33,569.797,0.0
56776.0,STARLINK-6274,PAYLOAD,2024-01-25 12:07:29,14.98332619,0.0003591,69.9992,116.6351,276.7143,83.3608,-1.7718e-05,-3.05e-06,0.0,0 STARLINK-6274,1 56776U 23078K   24025.50520495 -.00000305  00000-0 -17718-4 0  9992,2 56776  69.9992 116.6351 0003591 276.7143  83.3608 14.98332619 37462,6950.185,96.107,574.546,569.554,0.0
56776.0,STARLINK-6274,PAYLOAD,2024-01-25 13:43:37,14.98336208,0.0003257,69.9995,116.4682,265.6154,94.4633,7.5948e-06,-2e-08,0.0,0 STARLINK-6274,1 56776U 23078K   24025.57196115 -.00000002  00000-0  75948-5 0  9990,2 56776  69.9995 116.4682 0003257 265.6154  94.4633 14.98336208 37210,6950.174,96.107,574.302,569.775,0.0
56776.0,STARLINK-6274,PAYLOAD,2024-01-25 15:19:45,14.98337574,0.0003214,69.9997,116.3005,262.9981,97.0812,1.6565e-05,1.05e-06,0.0,0 STARLINK-6274,1 56776U 23078K   24025.63871970  .00000105  00000-0  16565-4 0  9998,2 56776  69.9997 116.3005 0003214 262.9981  97.0812 14.98337574 37227,6950.169,96.107,574.268,569.801,0.0
56776.0,STARLINK-6274,PAYLOAD,2024-01-26 12:09:30,14.98328639,0.0003005,70.0001,114.1128,259.3818,100.7003,0.00010602,1.172e-05,0.0,0 STARLINK-6274,1 56776U 23078K   24026.50660234  .00001172  00000-0  10602-3 0  9994,2 56776  70.0001 114.1128 0003005 259.3818 100.7003 14.98328639 37614,6950.197,96.107,574.151,569.974,0.0
56776.0,STARLINK-6274,PAYLOAD,2024-01-26 13:45:38,14.98330668,0.0002957,70.0002,113.9445,257.6548,102.428,0.00012938,1.451e-05,0.0,0 STARLINK-6274,1 56776U 23078K   24026.57336023  .00001451  00000-0  12938-3 0  9991,2 56776  70.0002 113.9445 0002957 257.6548 102.4280 14.98330668 37363,6950.191,96.107,574.111,570.001,0.0
56776.0,STARLINK-6274,PAYLOAD,2024-01-27 12:11:31,14.98329043,0.0002792,70.0005,111.5886,252.2089,107.8766,-5.8154e-05,-7.87e-06,0.0,0 STARLINK-6274,1 56776U 23078K   24027.50800553 -.00000787  00000-0 -58154-4 0  9993,2 56776  70.0005 111.5886 0002792 252.2089 107.8766 14.98329043 37764,6950.196,96.107,574.001,570.12,0.0
56776.0,STARLINK-6274,PAYLOAD,2024-01-27 13:47:39,14.98328965,0.0002792,70.0005,111.4203,252.5022,107.5832,-5.8112e-05,-7.86e-06,0.0,0 STARLINK-6274,1 56776U 23078K   24027.57476559 -.00000786  00000-0 -58112-4 0  9998,2 56776  70.0005 111.4203 0002792 252.5022 107.5832 14.98328965 37512,6950.196,96.107,574.002,570.121,0.0
56776.0,STARLINK-6274,PAYLOAD,2024-01-27 15:23:47,14.98328588,0.0002798,70.0004,111.2517,254.3235,105.7616,-6.0958e-05,-8.2e-06,0.0,0 STARLINK-6274,1 56776U 23078K   24027.64152598 -.00000820  00000-0 -60958-4 0  9990,2 56776  70.0004 111.2517 0002798 254.3235 105.7616 14.98328588 37521,6950.197,96.107,574.007,570.118,0.0
56776.0,STARLINK-6274,PAYLOAD,2024-01-28 13:49:40,14.98331811,0.0002772,70.0002,108.8947,255.9234,104.1617,-3.1254e-05,-4.66e-06,0.0,0 STARLINK-6274,1 56776U 23078K   24028.57616265 -.00000466  00000-0 -31254-4 0  9992,2 56776  70.0002 108.8947 0002772 255.9234 104.1617 14.98331811 37668,6950.187,96.107,573.979,570.126,0.0
56776.0,STARLINK-6274,PAYLOAD,2024-01-28 15:25:48,14.98331882,0.0002772,70.0002,108.7263,256.6521,103.4329,-2.9452e-05,-4.44e-06,0.0,0 STARLINK-6274,1 56776U 23078K   24028.64292253 -.00000444  00000-0 -29452-4 0  9990,2 56776  70.0002 108.7263 0002772 256.6521 103.4329 14.98331882 37935,6950.187,96.107,573.979,570.125,0.0
56776.0,STARLINK-6274,PAYLOAD,2024-01-29 12:15:32,14.98335037,0.0002777,69.9998,106.5367,265.8182,94.266,0.00011266,1.252e-05,0.0,0 STARLINK-6274,1 56776U 23078K   24029.51079479  .00001252  00000-0  11266-3 0  9999,2 56776  69.9998 106.5367 0002777 265.8182  94.2660 14.98335037 38063,6950.177,96.107,573.972,570.112,0.0
56776.0,STARLINK-6274,PAYLOAD,2024-01-30 12:17:34,14.9832419,0.0002576,70.0006,104.0135,251.3228,108.7651,-4.0771e-05,-5.79e-06,0.0,0 STARLINK-6274,1 56776U 23078K   24030.51220461 -.00000579  00000-0 -40771-4 0  9997,2 56776  70.0006 104.0135 0002576 251.3228 108.7651 14.98324190 38216,6950.211,96.107,573.866,570.285,0.0
56776.0,STARLINK-6274,PAYLOAD,2024-01-30 13:53:42,14.98323923,0.0002629,70.0003,103.8445,257.1358,102.9507,-6.3383e-05,-8.49e-06,0.0,0 STARLINK-6274,1 56776U 23078K   24030.57896581 -.00000849  00000-0 -63383-4 0  9999,2 56776  70.0003 103.8445 0002629 257.1358 102.9507 14.98323923 37961,6950.212,96.107,573.904,570.249,0.0
56776.0,STARLINK-6274,PAYLOAD,2024-01-30 15:29:50,14.98324273,0.0002621,70.0003,103.676,256.7575,103.3291,-5.5734e-05,-7.58e-06,0.0,0 STARLINK-6274,1 56776U 23078K   24030.64572553 -.00000758  00000-0 -55734-4 0  9997,2 56776  70.0003 103.6760 0002621 256.7575 103.3291 14.98324273 37972,6950.211,96.107,573.897,570.254,0.0
56776.0,STARLINK-6274,PAYLOAD,2024-01-31 12:19:34,14.98333928,0.0002842,69.9997,101.4872,263.1248,96.9588,-3.7581e-05,-5.41e-06,0.0,0 STARLINK-6274,1 56776U 23078K   24031.51359786 -.00000541  00000-0 -37581-4 0  9995,2 56776  69.9997 101.4872 0002842 263.1248  96.9588 14.98333928 38362,6950.181,96.107,574.021,570.071,0.0
56776.0,STARLINK-6274,PAYLOAD,2024-01-31 13:55:42,14.98334722,0.0002677,69.9994,101.3176,262.5936,97.4919,-9.4606e-05,-1.222e-05,0.0,0 STARLINK-6274,1 56776U 23078K   24031.58035852 -.00001222  00000-0 -94606-4 0  9995,2 56776  69.9994 101.3176 0002677 262.5936  97.4919 14.98334722 38118,6950.178,96.107,573.904,570.183,0.0
56776.0,STARLINK-6274,PAYLOAD,2024-02-01 10:45:28,14.98324064,0.0002774,69.9995,99.1301,256.2337,103.8513,1.9676e-05,1.42e-06,0.0,0 STARLINK-6274,1 56776U 23078K   24032.44824302  .00000142  00000-0  19676-4 0  9999,2 56776  69.9995  99.1301 0002774 256.2337 103.8513 14.98324064 38509,6950.211,96.107,574.004,570.148,0.0
56776.0,STARLINK-6274,PAYLOAD,2024-02-01 12:21:36,14.98324373,0.0002663,69.9995,98.9618,248.9367,111.1508,4.5978e-06,-3.8e-07,0.0,0 STARLINK-6274,1 56776U 23078K   24032.51500339 -.00000038  00000-0  45978-5 0  9998,2 56776  69.9995  98.9618 0002663 248.9367 111.1508 14.98324373 38256,6950.21,96.107,573.926,570.224,0.0
56776.0,STARLINK-6274,PAYLOAD,2024-02-01 13:57:44,14.98325419,0.000285,69.9994,98.7931,258.5603,101.5236,2.654e-05,2.24e-06,0.0,0 STARLINK-6274,1 56776U 23078K   24032.58176228  .00000224  00000-0  26540-4 0  9990,2 56776  69.9994  98.7931 0002850 258.5603 101.5236 14.98325419 38263,6950.207,96.107,574.053,570.091,0.0
56776.0,STARLINK-6274,PAYLOAD,2024-02-02 12:23:36,14.98333419,0.0002915,69.9993,96.4365,263.9667,96.116,7.2971e-05,7.78e-06,0.0,0 STARLINK-6274,1 56776U 23078K   24033.51639568  .00000778  00000-0  72971-4 0  9998,2 56776  69.9993  96.4365 0002915 263.9667  96.1160 14.98333419 38668,6950.182,96.107,574.073,570.021,0.0
56776.0,STARLINK-6274,PAYLOAD,2024-02-02 13:59:44,14.98335085,0.0002895,69.9993,96.2683,264.7221,95.3608,5.0219e-05,5.06e-06,0.0,0 STARLINK-6274,1 56776U 23078K   24033.58315511  .00000506  00000-0  50219-4 0  9994,2 56776  69.9993  96.2683 0002895 264.7221  95.3608 14.98335085 38413,6950.177,96.107,574.054,570.03,0.0
56776.0,STARLINK-6274,PAYLOAD,2024-02-03 04:24:57,14.98325609,0.0002816,69.9995,94.753,262.4731,97.6109,-7.8615e-06,-1.87e-06,0.0,0 STARLINK-6274,1 56776U 23078K   24034.18400234 -.00000187  00000-0 -78615-5 0  9996,2 56776  69.9995  94.7530 0002816 262.4731  97.6109 14.98325609 38763,6950.206,96.107,574.029,570.114,0.0
56776.0,STARLINK-6274,PAYLOAD,2024-02-03 12:25:38,14.98325333,0.0002823,69.9995,93.9116,262.8736,97.2102,-1.2662e-05,-2.44e-06,0.0,0 STARLINK-6274,1 56776U 23078K   24034.51780337 -.00000244  00000-0 -12662-4 0  9991,2 56776  69.9995  93.9116 0002823 262.8736  97.2102 14.98325333 38551,6950.207,96.107,574.034,570.11,0.0
56776.0,STARLINK-6274,PAYLOAD,2024-02-03 14:01:46,14.98326412,0.0002823,69.9995,93.7433,263.5317,96.552,-1.5893e-06,-1.12e-06,0.0,0 STARLINK-6274,1 56776U 23078K   24034.58456251 -.00000112  00000-0 -15893-5 0  9997,2 56776  69.9995  93.7433 0002823 263.5317  96.5520 14.98326412 38560,6950.204,96.107,574.031,570.107,0.0
56776.0,STARLINK-6274,PAYLOAD,2024-02-04 04:26:58,14.98335895,0.0002831,69.9993,92.2283,264.2389,95.8447,-4.13e-06,-1.42e-06,0.0,0 STARLINK-6274,1 56776U 23078K   24035.18539599 -.00000142  00000-0 -41300-5 0  9996,2 56776  69.9993  92.2283 0002831 264.2389  95.8447 14.98335895 38915,6950.175,96.107,574.007,570.072,0.0
56776.0,STARLINK-6274,PAYLOAD,2024-02-04 12:27:38,14.98337025,0.0002808,69.9994,91.3868,262.927,97.157,1.3296e-05,6.6e-07,0.0,0 STARLINK-6274,1 56776U 23078K   24035.51919349  .00000066  00000-0  13296-4 0  9993,2 56776  69.9994  91.3868 0002808 262.9270  97.1570 14.98337025 38709,6950.171,96.107,573.988,570.085,0.0
56776.0,STARLINK-6274,PAYLOAD,2024-02-05 04:28:59,14.98327904,0.0002814,69.9992,89.7031,265.0881,94.9957,3.1122e-05,2.78e-06,0.0,0 STARLINK-6274,1 56776U 23078K   24036.18679741  .00000278  00000-0  31122-4 0  9999,2 56776  69.9992  89.7031 0002814 265.0881  94.9957 14.98327904 39068,6950.199,96.107,574.02,570.109,0.0
56776.0,STARLINK-6274,PAYLOAD,2024-02-05 12:29:39,14.98328274,0.0002827,69.9992,88.8613,265.4172,94.6664,2.9323e-05,2.57e-06,0.0,0 STARLINK-6274,1 56776U 23078K   24036.52059743  .00000257  00000-0  29323-4 0  9998,2 56776  69.9992  88.8613 0002827 265.4172  94.6664 14.98328274 38854,6950.198,96.107,574.028,570.098,0.0
